format  = 'OEF1.1'       ! file format
rectype = 'ML'           ! record type (1L/ML)
refsys  = ECLM J2000     ! default reference system
END_OF_HEADER
mult_37
! Equinoctial elements: a, e*sin(LP), e*cos(LP), tan(i/2)*sin(LN), tan(i/2)*cos(LN), mean long.
 EQU   1.21304662477926E+00   0.001428848413597   0.256304284577764    0.010645601095783    0.006624611205025  49.0569213852478
 MJD     53349.055758380 TDT
 MAG  24.436  0.150
! RMS    6.80092E-04   9.99430E-06   5.26055E-04   1.75958E-05   1.20709E-05   5.51561E-02
! EIG   1.29474E-08   1.70694E-08   1.67780E-07   2.51868E-07   1.09378E-05   1.29089E-03
! WEA   0.52681  -0.00607   0.40751   0.01363   0.00935  -0.74572
 COV   4.625249331697651E-07 -5.282526453222797E-09  3.577420028799087E-07
 COV   1.196337485070648E-08  8.208656438022305E-09 -3.750628655912397E-05
 COV   9.988597502965866E-11 -4.123846639195716E-09 -1.387767154359980E-10
 COV  -9.460474790655735E-11  4.339814696302869E-07  2.767338498536794E-07
 COV   9.255189570310642E-09  6.349841156879515E-09 -2.901481915343563E-05
 COV   3.096119651005150E-10  2.123824103773459E-10 -9.704182068023787E-07
 COV   1.457063941580227E-10 -6.657634772005766E-07  3.042195009717071E-03
 NOR   1.642927541938198E+14 -5.387112908950974E+14  6.137373044215785E+14
 NOR   2.609234950116827E+13 -1.029360937466664E+14  7.941656617594105E+12
 NOR   1.829333476944926E+15 -2.160602235893805E+15 -6.455439267386469E+12
 NOR   5.652648163399937E+13 -2.749891803724136E+13  2.643554791159413E+15
 NOR  -7.280697811863209E+13  2.209806601848799E+14  3.311273604972060E+13
 NOR   2.638636069152073E+14 -8.854259758944836E+14 -4.813888815091492E+11
 NOR   3.176224604595116E+15  1.243119738879739E+12  4.177630263675130E+11
mult_38
! Equinoctial elements: a, e*sin(LP), e*cos(LP), tan(i/2)*sin(LN), tan(i/2)*cos(LN), mean long.
 EQU   1.21314868367376E+00   0.001427688994828   0.256383210283010    0.010648240235009    0.006626421965965  49.0486473923097
 MJD     53349.055758380 TDT
 MAG  24.435  0.150
! RMS    6.80558E-04   9.98993E-06   5.26271E-04   1.76009E-05   1.20750E-05   5.51749E-02
! EIG   1.29495E-08   1.70739E-08   1.67820E-07   2.51939E-07   1.09415E-05   1.29147E-03
! WEA   0.52693  -0.00606   0.40750   0.01363   0.00935  -0.74564
 COV   4.631597422419607E-07 -5.281390282810520E-09  3.581344627482473E-07
 COV   1.197502466704597E-08  8.217093205431835E-09 -3.754481795148095E-05
 COV   9.979869539435576E-11 -4.121857071116895E-09 -1.386937949979686E-10
 COV  -9.455260369699315E-11  4.337439325831884E-07  2.769612124270423E-07
 COV   9.261652924284247E-09  6.354618553482600E-09 -2.903663490069367E-05
 COV   3.097900324086733E-10  2.125160270676011E-10 -9.710282654626037E-07
 COV   1.458059317882240E-10 -6.662179695027758E-07  3.044270340034299E-03
 NOR   1.641745072259895E+14 -5.384610545613672E+14  6.133875389344986E+14
 NOR   2.607722256646043E+13 -1.028740473328718E+14  7.937846742971636E+12
 NOR   1.828965200094058E+15 -2.159944203239911E+15 -6.446451947435345E+12
 NOR   5.648743593650448E+13 -2.749291404997246E+13  2.642465846681452E+15
 NOR  -7.278006343219833E+13  2.208847507661375E+14  3.310191830525052E+13
 NOR   2.637425139602980E+14 -8.849927361878906E+14 -4.812069595714205E+11
 NOR   3.174553753428864E+15  1.242482688168342E+12  4.176628779992081E+11
mult_39
! Equinoctial elements: a, e*sin(LP), e*cos(LP), tan(i/2)*sin(LN), tan(i/2)*cos(LN), mean long.
 EQU   1.21325081259465E+00   0.001426530635807   0.256462168406326    0.010650880132898    0.006628233345298  49.0403705778380
 MJD     53349.055758380 TDT
 MAG  24.434  0.150
! RMS    6.81025E-04   9.98556E-06   5.26487E-04   1.76059E-05   1.20791E-05   5.51937E-02
! EIG   1.29515E-08   1.70783E-08   1.67860E-07   2.52009E-07   1.09451E-05   1.29205E-03
! WEA   0.52706  -0.00605   0.40748   0.01362   0.00935  -0.74556
 COV   4.637956153149311E-07 -5.280245974648080E-09  3.585274635572298E-07
 COV   1.198668889531794E-08  8.225540915229721E-09 -3.758339905001005E-05
 COV   9.971140930814642E-11 -4.119861569136144E-09 -1.386106879261731E-10
 COV  -9.450032719114911E-11  4.335057888991119E-07  2.771888173161021E-07
 COV   9.268122166119228E-09  6.359400615873644E-09 -2.905847174903770E-05
 COV   3.099682319623297E-10  2.126497525869897E-10 -9.716388141970096E-07
 COV   1.459055573586682E-10 -6.666728586583459E-07  3.046347461043816E-03
 NOR   1.640563219168489E+14 -5.382109292285002E+14  6.130379428859452E+14
 NOR   2.606210244610958E+13 -1.028120298347771E+14  7.934038641602204E+12
 NOR   1.828597228601991E+15 -2.159286560206755E+15 -6.437468581177759E+12
 NOR   5.644840988377462E+13 -2.748691489090464E+13  2.641377478061676E+15
 NOR  -7.275316095191117E+13  2.207888864064491E+14  3.309110701945479E+13
 NOR   2.636214732200750E+14 -8.845596887098751E+14 -4.810251277612805E+11
 NOR   3.172883676372774E+15  1.241845952680526E+12  4.175628076285234E+11
mult_40
! Equinoctial elements: a, e*sin(LP), e*cos(LP), tan(i/2)*sin(LN), tan(i/2)*cos(LN), mean long.
 EQU   1.21335301159790E+00   0.001425373337861   0.256541158958629    0.010653520789452    0.006630045343123  49.0320909414429
 MJD     53349.055758380 TDT
 MAG  24.434  0.150
! RMS    6.81493E-04   9.98119E-06   5.26704E-04   1.76110E-05   1.20833E-05   5.52126E-02
! EIG   1.29536E-08   1.70827E-08   1.67900E-07   2.52079E-07   1.09488E-05   1.29263E-03
! WEA   0.52718  -0.00605   0.40747   0.01362   0.00935  -0.74548
 COV   4.644325522715528E-07 -5.279093523705016E-09  3.589210045350514E-07
 COV   1.199836750248020E-08  8.233999546341883E-09 -3.762202975893926E-05
 COV   9.962411764488592E-11 -4.117860135168638E-09 -1.385273943761362E-10
 COV  -9.444791846433252E-11  4.332670389443556E-07  2.774166635847664E-07
 COV   9.274597261379435E-09  6.364187320953566E-09 -2.908032959351295E-05
 COV   3.101465625368068E-10  2.127835861038815E-10 -9.722498492281651E-07
 COV   1.460052703072522E-10 -6.671281421135103E-07  3.048426361143661E-03
 NOR   1.639381982513565E+14 -5.379609148757495E+14  6.126885162358714E+14
 NOR   2.604698913861819E+13 -1.027500412458220E+14  7.930232313130222E+12
 NOR   1.828229562541032E+15 -2.158629306802592E+15 -6.428489167046048E+12
 NOR   5.640940347036245E+13 -2.748092056104964E+13  2.640289685223855E+15
 NOR  -7.272627067646095E+13  2.206930670983698E+14  3.308030219227054E+13
 NOR   2.635004846845091E+14 -8.841268334213060E+14 -4.808433860693423E+11
 NOR   3.171214373256286E+15  1.241209532348111E+12  4.174628152688323E+11
mult_41
! Equinoctial elements: a, e*sin(LP), e*cos(LP), tan(i/2)*sin(LN), tan(i/2)*cos(LN), mean long.
 EQU   1.21345528073405E+00   0.001424217102275   0.256620181946689    0.010656162204532    0.006631857959442  49.0238084831655
 MJD     53349.055758380 TDT
 MAG  24.433  0.150
! RMS    6.81960E-04   9.97681E-06   5.26920E-04   1.76160E-05   1.20874E-05   5.52314E-02
! EIG   1.29556E-08   1.70872E-08   1.67939E-07   2.52149E-07   1.09525E-05   1.29321E-03
! WEA   0.52731  -0.00604   0.40745   0.01362   0.00935  -0.74540
 COV   4.650700191064431E-07 -5.277926788060894E-09  3.593146723557836E-07
 COV   1.201004666427774E-08  8.242459614022099E-09 -3.766066673857927E-05
 COV   9.953675072321317E-11 -4.115848028933085E-09 -1.384437559767651E-10
 COV  -9.439526880952082E-11  4.330271860076898E-07  2.776444315025203E-07
 COV   9.281067518701452E-09  6.368971332728958E-09 -2.910217491315018E-05
 COV   3.103246666587762E-10  2.129172823251117E-10 -9.728602497202011E-07
 COV   1.461049023198198E-10 -6.675830507773579E-07  3.050503526067257E-03
 NOR   1.638201362206373E+14 -5.377110114954334E+14  6.123392589625049E+14
 NOR   2.603188264327566E+13 -1.026880815626763E+14  7.926427757399259E+12
 NOR   1.827862202002865E+15 -2.157972443070222E+15 -6.419513703941180E+12
 NOR   5.637041669285962E+13 -2.747493106173595E+13  2.639202468148900E+15
 NOR  -7.269939260594423E+13  2.205972928394664E+14  3.306950382420408E+13
 NOR   2.633795483498895E+14 -8.836941703056688E+14 -4.806617344957726E+11
 NOR   3.169545843996104E+15  1.240573427136336E+12  4.173629009388040E+11
